H-2A R/B                
1 28932U 06002B   26186.31155377  .00013303  00000+0  63026-3 0  9996
2 28932  98.2591 343.7849 0050171 199.7103 160.2191 15.18335059112275
RESURS-DK 1             
1 29228U 06021A   26186.34553578  .00002955  00000+0  17161-3 0  9994
2 29228  69.9334 292.5473 0006699 282.2262  77.8154 15.13295823105327
CZ-4B R/B               
1 29507U 06046C   26186.18440029  .00006696  00000+0  32917-3 0  9991
2 29507  97.5438 230.7362 0031622 217.3905 142.5128 15.17926951 77862
CZ-2C R/B               
1 31114U 07010B   26186.30605609  .00000116  00000+0  72409-4 0  9993
2 31114  98.4113 293.7722 0058036 313.0643  46.5684 14.20280300996414
COSMO-SKYMED 1          
1 31598U 07023A   26186.58150485  .00002543  00000+0  22515-3 0  9998
2 31598  97.8851  18.5928 0001077  84.4412 275.6932 14.97191220 32541
COSMOS 2428             
1 31792U 07029A   26185.63029015  .00000121  00000+0  90553-4 0  9997
2 31792  70.9380 317.8526 0007150 101.6390 258.5534 14.12929556980616
SL-16 R/B               
1 31793U 07029B   26186.34929705 -.00000203  00000+0 -80114-4 0  9997
2 31793  70.9761 285.0499 0002292 260.1290 157.5528 14.14851853982010
KORONAS-FOTON           
1 33504U 09003A   26186.33213773  .00017974  00000+0  36478-3 0  9997
2 33504  82.4302 153.3259 0012541  92.1208 268.1477 15.46130816963906
CZ-2C R/B               
1 37731U 11030B   26186.36301921  .00001621  00000+0  20894-3 0  9999
2 37731  97.8664 141.4223 0051469 328.8699 191.0067 14.81518958807515
H-2A R/B                
1 38341U 12025E   26186.01818969  .00004180  00000+0  37404-3 0  9997
2 38341  98.4840 162.6353 0042212 289.3719  70.2939 14.95810124765755
SHIJIAN-16 (SJ-16)      
1 39358U 13057A   26186.60467655  .00001877  00000+0  18448-3 0  9996
2 39358  74.9743 321.7982 0016180 187.9661 172.1273 14.92651125689091
SL-4 R/B                
1 39679U 14021B   26186.07893530  .00017594  00000+0  35435-3 0  9998
2 39679  51.6064 123.0971 0090227 171.3046 188.9528 15.42329510674373
ALOS-2                  
1 39766U 14029A   26186.06187343  .00000552  00000+0  80746-4 0  9992
2 39766  97.9228 282.9699 0001666  89.5658 270.5745 14.79477316654223
YAOGAN-29               
1 41038U 15069A   26186.59650684  .00000637  00000+0  84812-4 0  9995
2 41038  98.0017 215.2579 0001533  26.7955 333.3338 14.83102379573357
ASTRO-H (HITOMI)        
1 41337U 16012A   26186.53631807  .00003928  00000+0  22623-3 0  9993
2 41337  31.0002 315.6783 0009551  77.5428 282.6278 15.10603121570065
HXMT (HUIYAN)           
1 42758U 17034A   26186.61735291  .00005372  00000+0  26262-3 0  9995
2 42758  43.0141  80.4069 0032793 262.4401  97.2722 15.18627011500467
SAOCOM 1A               
1 43641U 18076A   26186.63392036  .00000634  00000+0  86225-4 0  9994
2 43641  97.8885  13.1140 0001562  81.1310 279.0080 14.82164086418833
H-2A R/B                
1 43682U 18084L   26186.25675913  .00032189  00000+0  65673-3 0  9997
2 43682  98.8546  69.1024 0021190 337.1055  22.9243 15.45911088423917
SAOCOM 1B               
1 46265U 20059A   26186.66515024  .00000435  00000+0  61247-4 0  9996
2 46265  97.8888  12.2402 0001543  81.2547 278.8841 14.82152556316225
CSS (TIANHE)            
1 48274U 21035A   26186.47173111  .00017207  00000+0  22709-3 0  9993
2 48274  41.4674 210.7645 0002947 269.5009  90.5491 15.57984335296028
COSMOS 2550             
1 48865U 21056A   26186.60831115  .00006004  00000+0  18859-3 0  9996
2 48865  67.1430  44.1831 0008399 272.8247  87.1946 15.33759838281543
CZ-2C R/B               
1 52794U 22058K   26186.08494301  .00061494  00000+0  64286-3 0  9998
2 52794  50.1854  70.3043 0031223 340.8172  19.1625 15.63208442228444
CZ-2C R/B               
1 54039U 22132E   26186.47813250  .00085367  00000+0  59640-3 0  9999
2 54039  97.2892 194.3477 0011675  22.8685 337.3097 15.73943206208828
XRISM                   
1 57800U 23137A   26186.47031612  .00005692  00000+0  31217-3 0  9991
2 57800  31.0013 241.1590 0007789 148.5044 211.6062 15.12625943155635
ACS3                    
1 59588U 24077B   26186.28655558  .00065195  00000+0  45544-1 0  9990
2 59588  97.1713 101.0542 0111615  47.5373 313.5164 13.95106567110561
SPACEMOBILE-003         
1 61045U 24163A   26177.81235899  .00001689  00000+0  90246-4 0  9998
2 61045  52.9744 265.1828 0005991 141.0621 219.0806 15.20822722 99230
SPACEMOBILE-005         
1 61046U 24163B   26186.33883426  .00007991  00000+0  37137-3 0  9992
2 61046  52.9799 225.9069 0008880 165.7237 194.4010 15.20849837100522
SPACEMOBILE-001         
1 61047U 24163C   26186.33742309  .00003645  00000+0  17753-3 0  9991
2 61047  52.9753 225.6311 0007583 163.1082 197.0166 15.20848588100522
SPACEMOBILE-002         
1 61048U 24163D   26186.32150593  .00010607  00000+0  48777-3 0  9995
2 61048  52.9734 225.7454 0006559 164.5649 195.5546 15.20875679100523
